[{"OBJECT_NAME":"BRO-1","OBJECT_ID":"2019-054A","EPOCH":"2026-03-09T16:28:44.999616","MEAN_MOTION":15.66250354,"ECCENTRICITY":0.0008796,"INCLINATION":44.9993,"RA_OF_ASC_NODE":153.3787,"ARG_OF_PERICENTER":331.8221,"MEAN_ANOMALY":28.22,"EPHEMERIS_TYPE":0,"CLASSIFICATION_TYPE":"U","NORAD_CAT_ID":44495,"ELEMENT_SET_NO":999,"REV_AT_EPOCH":36404,"BSTAR":0.00076001799,"MEAN_MOTION_DOT":0.00081046,"MEAN_MOTION_DDOT":0},{"OBJECT_NAME":"STARLINK-11113 [DTC]","OBJECT_ID":"2024-107C","EPOCH":"2026-03-09T21:32:43.993824","MEAN_MOTION":15.69706119,"ECCENTRICITY":6.515e-5,"INCLINATION":53.158,"RA_OF_ASC_NODE":249.8596,"ARG_OF_PERICENTER":79.1337,"MEAN_ANOMALY":280.9754,"EPHEMERIS_TYPE":0,"CLASSIFICATION_TYPE":"U","NORAD_CAT_ID":59947,"ELEMENT_SET_NO":999,"REV_AT_EPOCH":10218,"BSTAR":5.638179e-6,"MEAN_MOTION_DOT":9.5e-7,"MEAN_MOTION_DDOT":0}]
